#dP2024  8 29  0  0  0.00000000      96 __u+U IGS20 FIT  IAC
## 2329 345600.00000000   900.00000000 60551 0.0000000000000
+   54   G01G02G03G04G05G06G07G08G09G10G11G12G13G14G15G16G17
+        G18G19G20G21G22G23G24G25G26G27G28G29G30G31G32R01R02
+        R03R04R05R07R08R09R11R12R14R15R16R17R18R19R20R21R22
+        R24R25R26  0  0  0  0  0  0  0  0  0  0  0  0  0  0
+          0  0  0  0  0  0  0  0  0  0  0  0  0  0  0  0  0
++         4  6  5  7  7  7  6  6  6  5  7  6  6  7  5  7  7
++         6  5  6  7  7  5  7  6  7  7  6  7  5  8  6  6  7
++         6  6  6  7  7  6  7  5  6  6  6  5  6  8  7  7  7
++         6  6  7  0  0  0  0  0  0  0  0  0  0  0  0  0  0
++         0  0  0  0  0  0  0  0  0  0  0  0  0  0  0  0  0
%c M  cc GPS ccc cccc cccc cccc cccc ccccc ccccc ccccc ccccc
%c cc cc ccc ccc cccc cccc cccc cccc ccccc ccccc ccccc ccccc
%f  0.0000000  0.000000000  0.00000000000  0.000000000000000
%f  0.0000000  0.000000000  0.00000000000  0.000000000000000
%i    0    0    0    0      0      0      0      0         0
%i    0    0    0    0      0      0      0      0         0
/* INFORMATION & ANALYSIS CENTER (IAC)      ULTRA-RAPID DATA
/* S/V CLOCKS ARE ALIGNED TO GNSS TIME                      
/* G:C1WC2W R:C1PC2P E:C1XC5X C:C2IC6I J:C1CC2S             
/* PCV:IGS20_2317 OL/AL:FES2004  NONE     YN ORB:CoN CLK:CoN
*  2024 08 29  8  0  0.00000000
PG01   1158.240064  17768.143711 -19980.471320 999999.999999
PG02  15597.177517   -748.170678  21989.027242   -369.274407
PG03  22026.574286 -11402.332694   9175.813317    518.138059
PG04  23132.265330  -1149.877700 -13115.459470    433.396385
PG05 -17125.085989  -2593.969525 -20340.407320   -184.797171
PG06  -4877.779599 -26049.269825    224.477870     67.286727
PG07   7901.417946 -18813.390201 -16224.348922    -44.838565
PG08  26016.625885   6078.362950   1955.278879    333.343620
PG09  14698.720985 -10071.720466 -19804.760814    333.853206
PG10  -4749.317399  19608.085277  17305.654973   -108.249380
PG11 -12417.139183 -19376.934539 -13289.157180   -728.004287
PG12 -22604.791533   7443.948182  11464.012741   -534.000386
PG13 -22186.434696 -14263.003834  -4308.823487    673.526831
PG14   8537.982379 -20723.027961  14121.624733    483.322079
PG15 -26385.903208  -3091.374339   1641.789658    198.050801
PG16  14397.256109   7825.079894 -21316.668141   -195.626732
PG17  -1161.456471 -16280.101737  21344.289844    642.200059
PG18  -7636.724930  19335.108241 -16382.174520   -649.795114
PG19 -10797.610508 -17568.292788  16815.715653    530.960939
PG20  -9819.387109 -12101.315843 -21453.003011    371.189861
PG21  16779.433616   6296.681461  20326.129456    102.742640
PG22   1608.578679 -18346.766803  19655.909496    -56.333409
PG23 -15356.011634  20529.303710   6515.114695    308.086336
PG24 -16379.567455  -1650.163181  20473.052696   -486.736729
PG25 -20038.109356  17113.035527   1540.582071    499.493941
PG26   4458.320130  16973.537859 -19995.667063     90.664189
PG27  21877.030291  13142.334852  -8395.772590    -33.524037
PG28   4488.899936  26050.684694   2560.296111   -390.932037
PG29 -18106.707115   6221.245348 -18508.339886   -581.230096
PG30    726.470859 -25132.346833  -7977.118988   -331.346738
PG31  10958.964762  22124.782784  -9484.999566   -225.346944
PG32   3894.842914  16408.589294  20780.433522   -602.012314
PR01  23070.698068  -6094.444286  -9006.317712     96.014344
PR02   9949.503649 -10215.958664 -21128.826292    -24.371676
PR03  -9456.527241  -9648.916726 -21581.859513    106.535909
PR04 -22999.366102  -3860.620974 -10290.596410    252.148171
PR05 -24336.701904   3891.581290   6530.159148    136.830210
PR07  10164.615298   9541.714214  21408.272434     89.783239
PR08  23160.408287   3645.027662  10148.739857     -6.402958
PR09 -10245.289395  23369.392255  -1357.684671    206.083197
PR11   9329.804245   5789.928455 -23009.511741     13.358663
PR12  15134.258428 -13556.842433 -15398.882540     44.196819
PR14    246.009484 -19074.851897  16938.966580     26.872667
PR15 -10297.709021  -4169.106653  22985.965524     76.385729
PR16 -15010.376716  13486.390369  15642.788507     28.664936
PR17 -11992.990736 -22197.949338   3947.476268    117.347396
PR18 -16112.242146 -15491.431676 -12240.806379    159.384398
PR19 -12966.505543  -3009.802709 -21762.232509   -289.367010
PR20   -577.458753  16455.394702 -19484.284191   -118.349561
PR21  11470.441781  22295.278334  -4583.172076   -129.944521
PR22  15988.563540  14882.937412  13202.986295     59.351640
PR24   -205.629122 -17020.676949  19026.685435    -69.798460
PR25  11254.395743  22596.498479  -3552.460064   -101.042005
PR26  22403.823992   4151.517089  11462.119956     13.638286
*  2024 08 29  8 15  0.00000000
PG01   -512.223385  19130.559227 -18652.357474 999999.999999
PG02  16326.262002   1515.540858  21428.614524   -369.267422
PG03  21260.704473 -10437.601802  11737.446624    518.150843
PG04  24362.905396   -538.897154 -10722.087647    433.402981
PG05 -15562.119147  -4335.087095 -21280.126577   -184.798492
PG06  -4662.028486 -25908.506140   3134.988274     67.264143
PG07   8591.524192 -16855.065534 -17926.419767    -44.833799
PG08  26027.539658   6336.934495   -856.232909    333.356087
PG09  16765.416488  -9399.693278 -18445.468332    333.867378
PG10  -6176.759797  20775.978416  15328.369584   -108.259842
PG11 -12490.136535 -20774.219166 -10907.109892   -728.008711
PG12 -21600.019319   6326.904717  13785.228564   -534.003063
PG13 -21541.275741 -14183.068379  -7075.639719    673.528470
PG14   9810.152151 -21541.789120  11864.117404    483.329855
PG15 -26427.496763  -3411.460466  -1154.625121    198.054662
PG16  12547.501047   9342.918336 -21836.992288   -195.617256
PG17   1102.439240 -15519.828851  21932.150326    642.190867
PG18  -8212.412320  17430.331749 -18162.370843   -649.797545
PG19  -8871.513813 -16909.956220  18479.964409    530.965363
PG20  -8345.678318 -14043.362179 -20901.434975    371.189828
PG21  17424.334519   8342.991823  19070.899920    102.742011
PG22   3302.268101 -19559.964177  18215.989745    -56.336944
PG23 -15915.604905  20795.728308   3687.315327    308.093978
PG24 -17083.672451  -3929.020860  19624.261263   -486.736864
PG25 -19986.852088  16628.286528   4361.902571    499.494051
PG26   2875.348984  18526.240405 -18832.002494     90.657020
PG27  20807.550973  13040.620515 -10935.851107    -33.524305
PG28   4127.125101  25678.976810   5370.170655   -390.945064
PG29 -19939.289753   5394.359343 -16813.141652   -581.228099
PG30   1292.247132 -24149.777960 -10516.366229   -331.340558
PG31  10886.014672  23079.460257  -6831.013769   -225.346567
PG32   1597.693458  15817.382952  21519.011297   -602.009415
PR01  23973.074036  -6335.534031  -5968.399176     96.015282
PR02  12459.533090 -10479.008268 -19623.696796    -24.371759
PR03  -6729.760118  -9829.480227 -22506.576463    106.536515
PR04 -21544.955390  -3810.592060 -13075.428789    252.149950
PR05 -24934.614948   4108.589110   3375.624593    136.831096
PR07   7473.514084   9705.798749  22416.446245     89.783719
PR08  21738.058072   3613.745835  12934.842051     -6.402354
PR09 -10146.693393  23384.010264   1820.949030    206.084962
PR11   8170.589504   8362.076004 -22658.538698     13.358611
PR12  14190.430114 -11743.336485 -17621.605234     44.196911
PR14    974.321314 -20879.408818  14622.079825     26.873373
PR15  -9109.535947  -6729.948711  22879.306884     76.384884
PR16 -14050.585277  11657.660265  17847.354038     28.665587
PR17 -11764.986738 -21531.027737   7083.006473    117.350221
PR18 -17003.594803 -16506.621475  -9373.565501    159.385980
PR19 -14421.776638  -5172.843443 -20398.396276   -289.368212
PR20  -1804.837273  14266.261827 -21067.508670   -118.350270
PR21  11206.555721  21556.983919  -7706.984713   -129.946675
PR22  16874.963668  16044.069281  10447.125681     59.343971
PR24   1110.446297 -14959.536115  20656.712096    -69.800133
PR25  11037.366429  21985.150375  -6685.742620   -101.042162
PR26  20819.228162   4152.547077  14141.455379     13.643631
EOF
